INTELSAT 9 (IS-9)       
1 26451U 00043A   25081.48030703 -.00000006  00000+0  00000+0 0  9991
2 26451   9.3932  53.2604 0003368 329.2539  36.8666  1.00272036 39614
INTELSAT 10 (IS-10)     
1 26766U 01019A   25081.48030703 -.00000002  00000+0  00000+0 0  9990
2 26766   7.9914  63.8504 0003887 303.2794  52.1018  1.00271918 41088
INTELSAT 901 (IS-901)   
1 26824U 01024A   25081.17809730 -.00000197  00000+0  00000+0 0  9996
2 26824   0.0710 104.4298 0002405 275.4602 196.6478  1.00272181 18458
INTELSAT 902 (IS-902)   
1 26900U 01039A   25081.52683554 -.00000277  00000+0  00000+0 0  9999
2 26900   4.9728  77.2819 0004583 283.5063 319.0384  1.00270682 86165
INTELSAT 904 (IS-904)   
1 27380U 02007A   25081.27961642 -.00000209  00000+0  00000+0 0  9992
2 27380   5.7837  74.5748 0003296 296.0969 240.5245  1.00272046 47238
DIRECTV 5 (TEMPO 1)     
1 27426U 02023A   25081.59082373 -.00000052  00000+0  00000+0 0  9997
2 27426   3.7181  80.9576 0003611 293.2359 268.7163  1.00271572 83595
INTELSAT 905 (IS-905)   
1 27438U 02027A   25080.97197524 -.00000201  00000+0  00000+0 0  9996
2 27438   5.6103  75.2137 0005987 284.2238  98.9169  0.99741101 46839
GALAXY 3C (G-3C)        
1 27445U 02030A   25081.52293613 -.00000148  00000+0  00000+0 0  9996
2 27445   2.5636  83.7923 0002699  48.0421 141.8353  1.00272094 41963
INTELSAT 906 (IS-906)   
1 27513U 02041A   25081.48030703  .00000019  00000+0  00000+0 0  9994
2 27513   4.6513  78.4806 0002636 272.0317  66.7536  1.00270721 82497
GALAXY 23 (G-23)        
1 27854U 03034A   25081.58211685  .00000017  00000+0  00000+0 0  9994
2 27854   2.0280  85.3339 0002926 285.7489 257.9043  1.00271687 79214
GALAXY 13 (HORIZONS-1)  
1 27954U 03044A   25081.52149236  .00000137  00000+0  00000+0 0  9995
2 27954   0.2488  91.8845 0002355 268.7508 217.3386  1.00271334 42048
INTELSAT 10-02          
1 28358U 04022A   25081.04053255 -.00000007  00000+0  00000+0 0  9990
2 28358   0.0186 197.1624 0000407 223.7332 132.5161  1.00265901 76024
XM-3 (RHYTHM)           
1 28626U 05008A   25081.16636845 -.00000195  00000+0  00000+0 0  9996
2 28626   0.0527 258.5330 0002404 183.8048  71.1406  1.00272412 38096
DIRECTV 8               
1 28659U 05019A   25081.58346404  .00000005  00000+0  00000+0 0  9998
2 28659   0.0177 111.3781 0003054 260.1098 259.8339  1.00271746 72542
GALAXY 28 (G-28)        
1 28702U 05022A   25081.40391913 -.00000180  00000+0  00000+0 0  9992
2 28702   2.1323  84.5590 0004493 225.9513 286.0207  1.00271970 47452
GALAXY 16 (G-16)        
1 29236U 06023A   25081.60105947 -.00000123  00000+0  00000+0 0  9996
2 29236   0.0218 211.4438 0002701 154.8915 291.3661  1.00271990 68440
DIRECTV 9S              
1 29494U 06043A   25081.59982263 -.00000109  00000+0  00000+0 0  9990
2 29494   1.2506  86.4243 0003057 279.9570 288.6887  1.00271998 46852
GALAXY 17 (G-17)        
1 31307U 07016B   25081.26780844 -.00000201  00000+0  00000+0 0  9995
2 31307   1.8233  85.6918 0003639 216.4538 249.2620  1.00269815 65277
DIRECTV 10              
1 31862U 07032A   25081.59856644 -.00000099  00000+0  00000+0 0  9992
2 31862   0.0435 349.7222 0000265  40.7566 262.5461  1.00270389 41061
INTELSAT 11 (IS-11)     
1 32253U 07044B   25077.38980492 -.00000266  00000+0  00000+0 0  9997
2 32253   2.3743  84.3185 0004940 358.1056 190.9695  1.00194353 63925
HORIZONS-2              
1 32388U 07063B   25081.36503047 -.00000249  00000+0  00000+0 0  9998
2 32388   1.4315  86.2554 0002216 294.7759 216.6740  1.00273948 63283
DIRECTV 11              
1 32729U 08013A   25081.60105944 -.00000122  00000+0  00000+0 0  9994
2 32729   0.0221   2.3315 0000157 296.1502 359.0436  1.00273409 41069
GALAXY 18 (G-18)        
1 32951U 08024A   25081.57961326  .00000029  00000+0  00000+0 0  9998
2 32951   0.0028 134.9262 0003007 242.1181 248.9179  1.00271902 41320
INTELSAT 25 (IS-25)     
1 33153U 08034A   25081.52128041 -.00000220  00000+0  00000+0 0  9992
2 33153   1.5387  85.9213 0003183 287.8587 322.6290  1.00270297 61165
GALAXY 19 (G-19)        
1 33376U 08045A   25081.60367094 -.00000135  00000+0  00000+0 0  9998
2 33376   0.0326 259.8810 0002870 114.5071 286.2721  1.00271657 60377
FM-5                    
1 35493U 09034A   25081.54350309 -.00000196  00000+0  00000+0 0  9990
2 35493   0.0338 267.8973 0003077 279.1976 102.6979  1.00270661 42115
INTELSAT 14 (IS-14)     
1 36097U 09064A   25081.52683554 -.00000269  00000+0  00000+0 0  9994
2 36097   0.0225  86.5888 0002739 295.6233 302.7249  1.00271778 56078
INTELSAT 15 (IS-15)     
1 36106U 09067A   25081.12455734 -.00000181  00000+0  00000+0 0  9994
2 36106   0.0177 206.6209 0002329 162.7771 300.4565  1.00271989 36699
DIRECTV 12              
1 36131U 09075A   25081.59856654 -.00000100  00000+0  00000+0 0  9999
2 36131   0.0316   1.9849 0000960  41.7329 249.3911  1.00271744 42021
INTELSAT 16 (IS-16)     
1 36397U 10006A   25081.26225351 -.00000240  00000+0  00000+0 0  9992
2 36397   0.0184 143.8782 0002014 235.6348 178.7136  1.00269374 55122
XM-5                    
1 37185U 10053A   25081.58707951 -.00000019  00000+0  00000+0 0  9990
2 37185   0.0313 268.0870 0001770 271.9130  96.4798  1.00270638 52953
INTELSAT 17 (IS-17)     
1 37238U 10065B   25081.48030703  .00000002  00000+0  00000+0 0  9996
2 37238   0.0083 185.5181 0002571 183.3909  50.2068  1.00271945 48713
INTELSAT 28 (IS-28)     
1 37392U 11016A   25081.51572547 -.00000163  00000+0  00000+0 0  9994
2 37392   0.6343  88.6210 0004063 275.7570 342.5554  1.00146220 48751
INTELSAT 18 (IS-18)     
1 37834U 11056A   25081.64043396  .00000057  00000+0  00000+0 0  9999
2 37834   0.0130 121.8167 0001867 244.3671 224.7604  1.00272751 49289
INTELSAT 22 (IS-22)     
1 38098U 12011A   25081.12640351 -.00000054  00000+0  00000+0 0  9999
2 38098   0.0095 196.4110 0001713 169.6901 291.3720  1.00270795  2658
INTELSAT 19 (IS-19)     
1 38356U 12030A   25081.62525348 -.00000053  00000+0  00000+0 0  9999
2 38356   0.0178 151.0581 0002993 218.6750 201.7160  1.00272227 45915
INTELSAT 20 (IS-20)     
1 38740U 12043A   25081.48016815 -.00000021  00000+0  00000+0 0  9993
2 38740   0.0133 116.5639 0002847  59.5070 245.4976  1.00270696 46210
INTELSAT 21 (IS-21)     
1 38749U 12045A   25081.53239046 -.00000281  00000+0  00000+0 0  9991
2 38749   0.0140 187.8110 0001880 192.5238 293.6022  1.00272042 45990
INTELSAT 23 (IS-23)     
1 38867U 12057A   25081.39329043 -.00000280  00000+0  00000+0 0  9995
2 38867   0.0221 205.1632 0000664  97.8866 325.6957  1.00270074 45421
FM-6                    
1 39360U 13058A   25081.12528475 -.00000012  00000+0  00000+0 0  9990
2 39360   0.0164 228.9051 0000320 262.1161 337.7720  1.00271775 41537
INTELSAT 30 (IS-30)     
1 40271U 14062A   25079.38586374 -.00000143  00000+0  00000+0 0  9991
2 40271   0.0153  89.3575 0001502 343.1289 149.5208  1.00271188  2234
DIRECTV 14              
1 40333U 14078B   25081.60105880 -.00000121  00000+0  00000+0 0  9990
2 40333   0.0296 297.9292 0000272 185.4649 174.0904  1.00270474 37527
DIRECTV 15              
1 40663U 15026A   25081.59856600 -.00000099  00000+0  00000+0 0  9995
2 40663   0.0315  98.1619 0000189  70.9008 123.8897  1.00273356 35931
SKY MEXICO-1            
1 40664U 15026B   25081.26780844 -.00000230  00000+0  00000+0 0  9993
2 40664   0.0420 349.2684 0002490  37.7097 170.6925  1.00271349 35928
INTELSAT 34 (IS-34)     
1 40874U 15039A   25081.53239046 -.00000281  00000+0  00000+0 0  9999
2 40874   0.0179 209.2355 0000354 356.0028 111.1969  1.00271203 35095
INTELSAT 31 (IS-31)     
1 41581U 16035A   25080.10945711 -.00000144  00000+0  00000+0 0  9995
2 41581   0.0093 172.4789 0001896  42.4866 268.2357  1.00270954 32146
INTELSAT 36 (IS-36)     
1 41747U 16053A   25081.48002926 -.00000020  00000+0  00000+0 0  9996
2 41747   0.0116 159.7233 0001116 175.4836  86.3271  1.00269458 31417
INTELSAT 32E (IS-32E)   
1 41945U 17007B   25081.52683554 -.00000265  00000+0  00000+0 0  9994
2 41945   0.0141 122.4341 0000785 267.6130 296.6933  1.00270887 29690
INTELSAT 35E (IS-35E)   
1 42818U 17041A   25081.52128041 -.00000234  00000+0  00000+0 0  9993
2 42818   0.0130 213.2622 0002171 147.6092 332.5511  1.00271291 28280
INTELSAT 37E (IS-37E)   
1 42950U 17059A   25081.22490427 -.00000136  00000+0  00000+0 0  9997
2 42950   0.0182 157.4606 0002159 218.3235 227.1421  1.00271694 27539
AZERSPACE 2 (IS-38)     
1 43632U 18074A   25081.19251946  .00000141  00000+0  00000+0 0  9995
2 43632   0.0160 184.7226 0001508 188.0622 281.5602  1.00271731 23919
HORIZONS-3E             
1 43633U 18074B   25081.63036126 -.00000027  00000+0  00000+0 0  9990
2 43633   0.0291 315.3811 0000697  17.4165 243.4869  1.00271798 23816
AT&T T-16               
1 44333U 19034A   25081.59971250 -.00000111  00000+0  00000+0 0  9990
2 44333   0.0197 108.7815 0001537  49.0412 137.5505  1.00270144 21101
INTELSAT 39 (IS-39)     
1 44476U 19049B   25081.19582091  .00000038  00000+0  00000+0 0  9998
2 44476   0.0206 169.9679 0001079 314.8758 187.5361  1.00270465 20597
GALAXY 30 (G-30)        
1 46114U 20056C   25081.57865689  .00000041  00000+0  00000+0 0  9992
2 46114   0.0211 168.2246 0002066 225.3997 230.0230  1.00271746 16760
GALAXY 33 (G-33)        
1 54026U 22128A   25081.57104622  .00000083  00000+0  00000+0 0  9994
2 54026   0.0188 165.9042 0001857 203.3338 243.6562  1.00270452  9217
GALAXY 34 (G-34)        
1 54027U 22128B   25077.93738646  .00000069  00000+0  00000+0 0  9993
2 54027   0.0217 190.7731 0003986 199.8901 354.5262  1.00243746  9341
GALAXY 31 (G-31)        
1 54243U 22153A   25081.58102738  .00000017  00000+0  00000+0 0  9997
2 54243   0.0095 179.9598 0001314 190.7711 257.7578  1.00271608  8629
GALAXY 32 (G-32)        
1 54244U 22153B   25073.38084876 -.00000185  00000+0  00000+0 0  9996
2 54244   0.0109 154.4219 0003608 190.3176 233.6066  1.00307206  8532
GALAXY 35 (G-35)        
1 54741U 22170A   25081.22336317 -.00000158  00000+0  00000+0 0  9999
2 54741   0.0125 186.8807 0001965 179.5240 160.8661  1.00271372  8366
GALAXY 36 (G-36)        
1 54742U 22170B   25080.59449420 -.00000179  00000+0  00000+0 0  9992
2 54742   0.0149 139.1466 0002387 273.0081 252.2230  1.00271950  8233
GALAXY 37 (G-37)        
1 57493U 23112A   25081.57623486  .00000052  00000+0  00000+0 0  9999
2 57493   0.0197  88.3713 0002031 281.2157 251.1730  1.00271448  5998
